NORAD_CAT_ID,OBJECT_NAME,OBJECT_TYPE,EPOCH,MEAN_MOTION,ECCENTRICITY,INCLINATION,RA_OF_ASC_NODE,ARG_OF_PERICENTER,MEAN_ANOMALY,BSTAR,MEAN_MOTION_DOT,MEAN_MOTION_DDOT,TLE_LINE0,TLE_LINE1,TLE_LINE2,SEMIMAJOR_AXIS,PERIOD,APOGEE,PERIGEE,DECAYED
55965.0,STARLINK-5894,PAYLOAD,2023-08-15 02:12:25,15.69928931,0.0003569,69.9957,118.414,266.2442,93.8346,1.3269e-05,1.383e-05,0.0,0 STARLINK-5894,1 55965U 23037BD  23227.09196599  .00001383  00000-0  13269-4 0  9999,2 55965  69.9957 118.4140 0003569 266.2442  93.8346 15.69928931 24120,6737.237,91.724,361.507,356.698,0.0
55965.0,STARLINK-5894,PAYLOAD,2023-08-15 15:58:12,15.69921252,0.0003697,69.9963,116.8013,270.0236,90.0536,4.2239e-06,2.95e-06,0.0,0 STARLINK-5894,1 55965U 23037BD  23227.66542301  .00000295  00000-0  42239-5 0  9999,2 55965  69.9963 116.8013 0003697 270.0236  90.0536 15.69921252 24213,6737.259,91.724,361.615,356.634,0.0
55965.0,STARLINK-5894,PAYLOAD,2023-08-16 01:08:42,15.69926076,0.0003326,69.9968,115.7257,264.962,95.1196,1.1844e-05,1.212e-05,0.0,0 STARLINK-5894,1 55965U 23037BD  23228.04771906  .00001212  00000-0  11844-4 0  9994,2 55965  69.9968 115.7257 0003326 264.9620  95.1196 15.69926076 24277,6737.245,91.724,361.351,356.87,0.0
55965.0,STARLINK-5894,PAYLOAD,2023-08-16 16:26:14,15.69905221,0.0003091,69.9965,113.9338,266.9269,93.1573,4.7708e-05,5.523e-05,0.0,0 STARLINK-5894,1 55965U 23037BD  23228.68488634  .00005523  00000-0  47708-4 0  9994,2 55965  69.9965 113.9338 0003091 266.9269  93.1573 15.69905221 24371,6737.305,91.725,361.253,357.088,0.0
55965.0,STARLINK-5894,PAYLOAD,2023-08-18 02:04:47,15.69928867,0.0003304,69.9972,109.9923,268.3882,91.6935,-5.0559e-06,-8.21e-06,0.0,0 STARLINK-5894,1 55965U 23037BD  23230.08665688 -.00000821  00000-0 -50559-5 0  9994,2 55965  69.9972 109.9923 0003304 268.3882  91.6935 15.69928867 24598,6737.238,91.724,361.328,356.877,0.0
55965.0,STARLINK-5894,PAYLOAD,2023-08-19 02:32:48,15.69927524,0.0004035,69.9955,107.1279,274.3389,85.7346,9.3258e-06,9.08e-06,0.0,0 STARLINK-5894,1 55965U 23037BD  23231.10612179  .00000908  00000-0  93258-5 0  9992,2 55965  69.9955 107.1279 0004035 274.3389  85.7346 15.69927524 24751,6737.241,91.724,361.825,356.388,0.0
55965.0,STARLINK-5894,PAYLOAD,2023-08-20 01:29:06,15.69923622,0.0003889,69.9949,104.4401,267.9636,92.1114,8.4214e-06,8e-06,0.0,0 STARLINK-5894,1 55965U 23037BD  23232.06187546  .00000800  00000-0  84214-5 0  9996,2 55965  69.9949 104.4401 0003889 267.9636  92.1114 15.69923622 24907,6737.253,91.724,361.738,356.497,0.0
55965.0,STARLINK-5894,PAYLOAD,2023-08-21 01:57:08,15.69918117,0.0003238,69.9969,101.5732,268.2949,91.7876,1.7243e-05,1.86e-05,0.0,0 STARLINK-5894,1 55965U 23037BD  23233.08134465  .00001860  00000-0  17243-4 0  9995,2 55965  69.9969 101.5732 0003238 268.2949  91.7876 15.69918117 25064,6737.268,91.725,361.315,356.952,0.0
55965.0,STARLINK-5894,PAYLOAD,2023-08-22 23:49:41,15.6992617,0.0003652,69.997,96.1987,269.7927,90.285,1.5517e-05,1.653e-05,0.0,0 STARLINK-5894,1 55965U 23037BD  23234.99284213  .00001653  00000-0  15517-4 0  9995,2 55965  69.9970  96.1987 0003652 269.7927  90.2850 15.69926170 25366,6737.245,91.724,361.571,356.65,0.0
55965.0,STARLINK-5894,PAYLOAD,2023-08-24 00:17:44,15.69916058,0.0003551,69.9975,93.3323,266.7628,93.3161,4.038e-06,2.73e-06,0.0,0 STARLINK-5894,1 55965U 23037BD  23236.01231823  .00000273  00000-0  40380-5 0  9993,2 55965  69.9975  93.3323 0003551 266.7628  93.3161 15.69916058 25528,6737.274,91.725,361.532,356.747,0.0
55965.0,STARLINK-5894,PAYLOAD,2023-08-24 23:14:00,15.69935049,0.0003728,69.9977,90.6454,260.2932,99.7843,8.846e-07,-1.07e-06,0.0,0 STARLINK-5894,1 55965U 23037BD  23236.96805754 -.00000107  00000-0  88460-6 0  9996,2 55965  69.9977  90.6454 0003728 260.2932  99.7843 15.69935049 25672,6737.22,91.724,361.596,356.573,0.0
55965.0,STARLINK-5894,PAYLOAD,2023-08-25 17:35:02,15.69916933,0.0003197,69.9974,88.4962,259.1372,100.9464,1.0308e-05,1.027e-05,0.0,0 STARLINK-5894,1 55965U 23037BD  23237.73266809  .00001027  00000-0  10308-4 0  9999,2 55965  69.9974  88.4962 0003197 259.1372 100.9464 15.69916933 25791,6737.272,91.725,361.291,356.983,0.0
55965.0,STARLINK-5894,PAYLOAD,2023-08-26 13:27:48,15.69921798,0.0003491,69.9975,86.1658,264.4723,95.6074,1.0553e-05,1.056e-05,0.0,0 STARLINK-5894,1 55965U 23037BD  23238.56098289  .00001056  00000-0  10553-4 0  9990,2 55965  69.9975  86.1658 0003491 264.4723  95.6074 15.69921798 25584,6737.258,91.724,361.475,356.771,0.0
55965.0,STARLINK-5894,PAYLOAD,2023-08-26 16:31:18,15.69934184,0.0002679,69.9973,85.8088,254.3026,105.7875,2.3709e-05,2.64e-05,0.0,0 STARLINK-5894,1 55965U 23037BD  23238.68840638  .00002640  00000-0  23709-4 0  9993,2 55965  69.9973  85.8088 0002679 254.3026 105.7875 15.69934184 25941,6737.222,91.724,360.892,357.282,0.0
55965.0,STARLINK-5894,PAYLOAD,2023-08-27 00:10:05,15.69908252,0.0002738,69.9974,84.9137,272.2079,87.8803,-9.2376e-06,-1.322e-05,0.0,0 STARLINK-5894,1 55965U 23037BD  23239.00701247 -.00001322  00000-0 -92376-5 0  9997,2 55965  69.9974  84.9137 0002738 272.2079  87.8803 15.69908252 25993,6737.296,91.725,361.006,357.317,0.0
55965.0,STARLINK-5894,PAYLOAD,2023-08-27 16:59:21,15.69924375,0.0003311,69.9959,82.9412,261.4872,98.5948,2.5789e-06,9.7e-07,0.0,0 STARLINK-5894,1 55965U 23037BD  23239.70788319  .00000097  00000-0  25789-5 0  9999,2 55965  69.9959  82.9412 0003311 261.4872  98.5948 15.69924375 26106,6737.25,91.724,361.346,356.885,0.0
55965.0,STARLINK-5894,PAYLOAD,2023-08-27 23:06:22,15.6991903,0.0003469,69.9961,82.2238,268.4167,91.6631,-3.402e-06,-6.22e-06,0.0,0 STARLINK-5894,1 55965U 23037BD  23239.96275494 -.00000622  00000-0 -34020-5 0  9996,2 55965  69.9961  82.2238 0003469 268.4167  91.6631 15.69919030 26145,6737.266,91.724,361.468,356.793,0.0
55965.0,STARLINK-5894,PAYLOAD,2023-08-28 06:45:08,15.69907567,0.0003375,69.9972,81.3279,269.8737,90.2072,3.8291e-06,2.47e-06,0.0,0 STARLINK-5894,1 55965U 23037BD  23240.28134645  .00000247  00000-0  38291-5 0  9990,2 55965  69.9972  81.3279 0003375 269.8737  90.2072 15.69907567 26197,6737.298,91.725,361.437,356.89,0.0
55965.0,STARLINK-5894,PAYLOAD,2023-08-28 15:55:37,15.69943922,0.0002991,69.9987,80.2535,267.3786,92.7067,9.753e-06,9.61e-06,0.0,0 STARLINK-5894,1 55965U 23037BD  23240.66362487  .00000961  00000-0  97530-5 0  9993,2 55965  69.9987  80.2535 0002991 267.3786  92.7067 15.69943922 26259,6737.194,91.723,361.075,357.044,0.0
55965.0,STARLINK-5894,PAYLOAD,2023-08-28 22:02:38,15.69936444,0.0003255,69.9993,79.5359,270.729,89.3533,1.162e-06,-7.3e-07,0.0,0 STARLINK-5894,1 55965U 23037BD  23240.91849547 -.00000073  00000-0  11620-5 0  9999,2 55965  69.9993  79.5359 0003255 270.7290  89.3533 15.69936444 26298,6737.216,91.723,361.274,356.888,0.0
55965.0,STARLINK-5894,PAYLOAD,2023-08-29 16:23:40,15.69915506,0.0003157,69.9971,77.3857,275.2688,84.8147,1.9731e-05,2.159e-05,0.0,0 STARLINK-5894,1 55965U 23037BD  23241.68310556  .00002159  00000-0  19731-4 0  9993,2 55965  69.9971  77.3857 0003157 275.2688  84.8147 15.69915506 26416,6737.276,91.725,361.268,357.014,0.0
55965.0,STARLINK-5894,PAYLOAD,2023-08-29 22:30:43,15.69885333,0.0003554,69.9969,76.6696,284.9946,75.0856,-1.4253e-05,-1.924e-05,0.0,0 STARLINK-5894,1 55965U 23037BD  23241.93800203 -.00001924  00000-0 -14253-4 0  9999,2 55965  69.9969  76.6696 0003554 284.9946  75.0856 15.69885333 26458,6737.362,91.726,361.622,356.833,0.0
55965.0,STARLINK-5894,PAYLOAD,2023-08-30 16:56:08,15.66313077,0.0009086,69.9944,74.5327,72.5187,287.6999,-0.0043021,-0.00425773,0.0,0 STARLINK-5894,1 55965U 23037BD  23242.70565088 -.00425773  00000-0 -43021-2 0  9999,2 55965  69.9944  74.5327 0009086  72.5187 287.6999 15.66313077 26573,6747.602,91.936,375.598,363.336,0.0
55965.0,STARLINK-5894,PAYLOAD,2023-08-31 04:00:01,15.67328884,0.0003458,69.9985,73.2228,275.4679,180.5698,-0.0097807,-0.00959807,0.0,0 STARLINK-5894,1 55965U 23037BD  23243.16668981 -.00959807  00000-0 -97807-2 0  9997,2 55965  69.9985  73.2228 0003458 275.4679 180.5698 15.67328884 26649,6744.686,91.876,368.884,364.219,0.0
55965.0,STARLINK-5894,PAYLOAD,2023-08-31 14:00:01,15.66513172,0.0003639,69.9991,72.0564,267.7264,17.8652,-0.0097972,-0.00932771,0.0,0 STARLINK-5894,1 55965U 23037BD  23243.58334491 -.00932771  00000-0 -97972-2 0  9993,2 55965  69.9991  72.0564 0003639 267.7264  17.8652 15.66513172 26716,6747.027,91.924,371.348,366.437,0.0
55965.0,STARLINK-5894,PAYLOAD,2023-08-31 22:00:01,15.65818898,0.0003678,69.9991,71.1241,275.6527,88.8488,-0.0094319,-0.00865422,0.0,0 STARLINK-5894,1 55965U 23037BD  23243.91668981 -.00865422  00000-0 -94319-2 0  9994,2 55965  69.9991  71.1241 0003678 275.6527  88.8488 15.65818898  5951,6749.022,91.965,373.369,368.404,0.0
55965.0,STARLINK-5894,PAYLOAD,2023-09-01 14:00:01,15.64554273,0.0003506,69.9991,69.2629,270.4449,249.2705,-0.010606,-0.00933284,0.0,0 STARLINK-5894,1 55965U 23037BD  23244.58334491 -.00933284  00000-0 -10606-1 0  9992,2 55965  69.9991  69.2629 0003506 270.4449 249.2705 15.64554273  5919,6752.658,92.039,376.89,372.155,0.0
55965.0,STARLINK-5894,PAYLOAD,2023-09-01 22:00:00,15.63865327,0.0003512,69.9989,68.3334,275.6104,320.5987,-0.010225,-0.00880335,0.0,0 STARLINK-5894,1 55965U 23037BD  23244.91667824 -.00880335  00000-0 -10225-1 0  9993,2 55965  69.9989  68.3334 0003512 275.6104 320.5987 15.63865327 26913,6754.641,92.08,378.878,374.134,0.0
55965.0,STARLINK-5894,PAYLOAD,2023-09-02 14:00:01,15.62602192,0.0003618,69.9995,66.4775,271.185,115.6122,-0.011538,-0.00939393,0.0,0 STARLINK-5894,1 55965U 23037BD  23245.58334491 -.00939393  00000-0 -11538-1 0  9995,2 55965  69.9995  66.4775 0003618 271.1850 115.6122 15.62602192 27029,6758.281,92.154,382.591,377.7,0.0
55965.0,STARLINK-5894,PAYLOAD,2023-09-02 22:00:00,15.61904264,0.0003544,69.9996,65.5507,277.7929,183.1552,-0.010992,-0.00876606,0.0,0 STARLINK-5894,1 55965U 23037BD  23245.91667824 -.00876606  00000-0 -10992-1 0  9991,2 55965  69.9996  65.5507 0003544 277.7929 183.1552 15.61904264  5971,6760.294,92.195,384.555,379.763,0.0
